GLOBALSTAR M084         
1 38040U 11080A   24338.59026347 -.00000064  00000+0  22408-3 0  9990
2 38040  52.0016 283.9424 0000750  33.2818 138.0156 12.62271645598248
GLOBALSTAR M080         
1 38041U 11080B   24338.13480087 -.00000075  00000+0  15874-3 0  9997
2 38041  52.0068 286.8679 0000629  10.2487   9.6171 12.62269353598032
GLOBALSTAR M082         
1 38042U 11080C   24338.49788950 -.00000051  00000+0  29184-3 0  9990
2 38042  52.0070 241.1881 0001241  85.4789  85.4732 12.62270503598781
GLOBALSTAR M092         
1 38043U 11080D   24338.46121001 -.00000091  00000+0  70251-4 0  9992
2 38043  52.0102 331.6653 0000449  56.3484  67.9500 12.62269954597233
GLOBALSTAR M090         
1 38044U 11080E   24338.44503310 -.00000048  00000+0  31233-3 0  9996
2 38044  51.9882 235.4088 0000950  80.4879  90.6241 12.62264399598899
GLOBALSTAR M086         
1 38045U 11080F   24338.47123208 -.00000057  00000+0  25872-3 0  9996
2 38045  51.9890 235.8642 0000023 174.6926 356.0127 12.62264179598842
GLOBALSTAR M097         
1 39072U 13005A   24338.77724190 -.00000109  00000+0 -28709-4 0  9998
2 39072  52.0016 149.2816 0000999 110.4760 249.6214 12.62268093546219
GLOBALSTAR M093         
1 39073U 13005B   24338.75033129 -.00000109  00000+0 -30803-4 0  9990
2 39073  51.9783 142.9754 0001097 113.9657 246.1325 12.62276926546201
